{"fetched_at":"2026-03-30T06:02:59Z","count":15439,"tles":[{"name":"STARLINK-11525 [DTC]","line1":"1 62566U 25006N   26087.86886304  .00010786  00000+0  87346-4 0  9997","line2":"2 62566  42.9991  24.7464 0001897 255.3614 104.7044 15.70866200 69616","category":"Starlink"}]}